GPS BIII-7  (PRN 01)    
1 62339U 24242A   26084.32879528 -.00000085  00000+0  00000+0 0  9993
2 62339  54.8829 337.5830 0016358 358.9940 177.9462  2.00569753  9575
